start=new Date('2022-06-08T00:00:00.000Z').valueOf();
sats=[{"MEAN_ELEMENT_THEORY":"SGP4","RA_OF_ASC_NODE":"264.2600","EPOCH":"2022-06-07T13:59:23.276256","OBJECT_NAME":"STARLINK-3112","SITE":"AFETR","OBJECT_TYPE":"PAYLOAD","GP_ID":"205572275","FILE":"3485094","RCS_SIZE":"LARGE","OBJECT_ID":"2021-104P","MEAN_MOTION_DDOT":"0.0000000000000","ECCENTRICITY":"0.00021880","ELEMENT_SET_NO":"999","TIME_SYSTEM":"UTC","CENTER_NAME":"EARTH","ARG_OF_PERICENTER":"43.9394","TLE_LINE1":"1 49421U 21104P   22158.58290829  .00000852  00000-0  71610-4 0  9993","NORAD_CAT_ID":"49421","PERIOD":"95.438","DECAY_DATE":null,"INCLINATION":"53.2191","LAUNCH_DATE":"2021-11-13","EPHEMERIS_TYPE":"0","SEMIMAJOR_AXIS":"6917.888","TLE_LINE2":"2 49421  53.2191 264.2600 0002188  43.9394 316.1772 15.08837402 32712","MEAN_MOTION_DOT":"0.00000852","REV_AT_EPOCH":"3271","MEAN_ANOMALY":"316.1772","BSTAR":"0.00007161000000","CLASSIFICATION_TYPE":"U","APOAPSIS":"541.267","MEAN_MOTION":"15.08837402","COUNTRY_CODE":"US","REF_FRAME":"TEME","PERIAPSIS":"538.240"},{"RCS_SIZE":"LARGE","OBJECT_ID":"2021-104Q","MEAN_MOTION_DDOT":"0.0000000000000","ELEMENT_SET_NO":"999","ECCENTRICITY":"0.00026080","TIME_SYSTEM":"UTC","RA_OF_ASC_NODE":"263.9128","MEAN_ELEMENT_THEORY":"SGP4","EPOCH":"2022-06-07T15:50:40.940448","OBJECT_TYPE":"PAYLOAD","SITE":"AFETR","OBJECT_NAME":"STARLINK-3161","GP_ID":"205572781","FILE":"3485115","CLASSIFICATION_TYPE":"U","BSTAR":"-0.00004380600000","MEAN_ANOMALY":"321.7601","MEAN_MOTION_DOT":"-0.00000986","REV_AT_EPOCH":"3274","APOAPSIS":"541.549","MEAN_MOTION":"15.08840074","REF_FRAME":"TEME","COUNTRY_CODE":"US","PERIAPSIS":"537.941","CENTER_NAME":"EARTH","ARG_OF_PERICENTER":"38.3577","TLE_LINE1":"1 49422U 21104Q   22158.66019607 -.00000986  00000-0 -43806-4 0  9992","PERIOD":"95.438","NORAD_CAT_ID":"49422","DECAY_DATE":null,"INCLINATION":"53.2194","TLE_LINE2":"2 49422  53.2194 263.9128 0002608  38.3577 321.7601 15.08840074 32740","LAUNCH_DATE":"2021-11-13","SEMIMAJOR_AXIS":"6917.880","EPHEMERIS_TYPE":"0"},{"INCLINATION":"53.2206","LAUNCH_DATE":"2021-11-13","SEMIMAJOR_AXIS":"6917.873","EPHEMERIS_TYPE":"0","TLE_LINE2":"2 49423  53.2206 264.2911 0002561  35.6775 324.4388 15.08842436 31630","CENTER_NAME":"EARTH","TLE_LINE1":"1 49423U 21104R   22158.57554803  .00001123  00000-0  88666-4 0  9990","ARG_OF_PERICENTER":"35.6775","NORAD_CAT_ID":"49423","PERIOD":"95.437","DECAY_DATE":null,"MEAN_MOTION":"15.08842436","COUNTRY_CODE":"US","REF_FRAME":"TEME","PERIAPSIS":"537.966","REV_AT_EPOCH":"3163","MEAN_MOTION_DOT":"0.00001123","BSTAR":"0.00008866600000","CLASSIFICATION_TYPE":"U","MEAN_ANOMALY":"324.4388","APOAPSIS":"541.510","GP_ID":"205567343","FILE":"3484919","MEAN_ELEMENT_THEORY":"SGP4","RA_OF_ASC_NODE":"264.2911","EPOCH":"2022-06-07T13:48:47.349792","OBJECT_NAME":"STARLINK-3149","OBJECT_TYPE":"PAYLOAD","SITE":"AFETR","ELEMENT_SET_NO":"999","ECCENTRICITY":"0.00025610","TIME_SYSTEM":"UTC","RCS_SIZE":"LARGE","OBJECT_ID":"2021-104R","MEAN_MOTION_DDOT":"0.0000000000000"},{"FILE":"3485136","GP_ID":"205597097","OBJECT_TYPE":"PAYLOAD","SITE":"AFETR","OBJECT_NAME":"STARLINK-3135","EPOCH":"2022-06-07T17:15:28.160352","RA_OF_ASC_NODE":"263.6466","MEAN_ELEMENT_THEORY":"SGP4","TIME_SYSTEM":"UTC","ECCENTRICITY":"0.00027000","ELEMENT_SET_NO":"999","MEAN_MOTION_DDOT":"0.0000000000000","OBJECT_ID":"2021-104S","RCS_SIZE":"LARGE","TLE_LINE2":"2 49424  53.2189 263.6466 0002700  29.9723 330.1423 15.08833862 31652","LAUNCH_DATE":"2021-11-13","SEMIMAJOR_AXIS":"6917.899","EPHEMERIS_TYPE":"0","INCLINATION":"53.2189","DECAY_DATE":null,"PERIOD":"95.438","NORAD_CAT_ID":"49424","ARG_OF_PERICENTER":"29.9723","TLE_LINE1":"1 49424U 21104S   22158.71907593  .00000695  00000-0  61782-4 0  9998","CENTER_NAME":"EARTH","PERIAPSIS":"537.896","REF_FRAME":"TEME","COUNTRY_CODE":"US","MEAN_MOTION":"15.08833862","APOAPSIS":"541.632","BSTAR":"0.00006178200000","MEAN_ANOMALY":"330.1423","CLASSIFICATION_TYPE":"U","REV_AT_EPOCH":"3165","MEAN_MOTION_DOT":"0.00000695"},{"TLE_LINE2":"2 49425  53.2190 264.3088 0002077  39.9357 320.1788 15.08845677 31643","LAUNCH_DATE":"2021-11-13","SEMIMAJOR_AXIS":"6917.863","EPHEMERIS_TYPE":"0","INCLINATION":"53.2190","DECAY_DATE":null,"PERIOD":"95.437","NORAD_CAT_ID":"49425","TLE_LINE1":"1 49425U 21104T   22158.57186689  .00000804  00000-0  68612-4 0  9999","ARG_OF_PERICENTER":"39.9357","CENTER_NAME":"EARTH","PERIAPSIS":"538.291","REF_FRAME":"TEME","COUNTRY_CODE":"US","MEAN_MOTION":"15.08845677","APOAPSIS":"541.165","CLASSIFICATION_TYPE":"U","BSTAR":"0.00006861200000","MEAN_ANOMALY":"320.1788","MEAN_MOTION_DOT":"0.00000804","REV_AT_EPOCH":"3164","FILE":"3484919","GP_ID":"205565844","OBJECT_TYPE":"PAYLOAD","SITE":"AFETR","OBJECT_NAME":"STARLINK-3139","EPOCH":"2022-06-07T13:43:29.299296","RA_OF_ASC_NODE":"264.3088","MEAN_ELEMENT_THEORY":"SGP4","TIME_SYSTEM":"UTC","ECCENTRICITY":"0.00020770","ELEMENT_SET_NO":"999","MEAN_MOTION_DDOT":"0.0000000000000","OBJECT_ID":"2021-104T","RCS_SIZE":"LARGE"},{"RCS_SIZE":"LARGE","MEAN_MOTION_DDOT":"0.0000000000000","OBJECT_ID":"2021-104U","ECCENTRICITY":"0.00021610","ELEMENT_SET_NO":"999","TIME_SYSTEM":"UTC","EPOCH":"2022-06-07T15:29:28.187232","MEAN_ELEMENT_THEORY":"SGP4","RA_OF_ASC_NODE":"263.9771","OBJECT_NAME":"STARLINK-3114","OBJECT_TYPE":"PAYLOAD","SITE":"AFETR","GP_ID":"205596102","FILE":"3485136","APOAPSIS":"541.240","MEAN_MOTION_DOT":"0.00000743","REV_AT_EPOCH":"3164","MEAN_ANOMALY":"326.3205","BSTAR":"0.00006477400000","CLASSIFICATION_TYPE":"U","COUNTRY_CODE":"US","REF_FRAME":"TEME","MEAN_MOTION":"15.08840232","PERIAPSIS":"538.250","TLE_LINE1":"1 49426U 21104U   22158.64546513  .00000743  00000-0  64774-4 0  9991","ARG_OF_PERICENTER":"33.7925","CENTER_NAME":"EARTH","DECAY_DATE":null,"NORAD_CAT_ID":"49426","PERIOD":"95.438","INCLINATION":"53.2196","EPHEMERIS_TYPE":"0","LAUNCH_DATE":"2021-11-13","SEMIMAJOR_AXIS":"6917.880","TLE_LINE2":"2 49426  53.2196 263.9771 0002161  33.7925 326.3205 15.08840232 31645"},{"FILE":"3484814","GP_ID":"205540163","OBJECT_TYPE":"PAYLOAD","SITE":"AFETR","OBJECT_NAME":"STARLINK-3131","RA_OF_ASC_NODE":"264.3254","MEAN_ELEMENT_THEORY":"SGP4","EPOCH":"2022-06-07T13:38:10.838400","TIME_SYSTEM":"UTC","ECCENTRICITY":"0.00022760","ELEMENT_SET_NO":"999","OBJECT_ID":"2021-104V","MEAN_MOTION_DDOT":"0.0000000000000","RCS_SIZE":"LARGE","TLE_LINE2":"2 49427  53.2200 264.3254 0002276  38.9506 321.1650 15.08851217 32735","SEMIMAJOR_AXIS":"6917.846","LAUNCH_DATE":"2021-11-13","EPHEMERIS_TYPE":"0","INCLINATION":"53.2200","PERIOD":"95.437","NORAD_CAT_ID":"49427","DECAY_DATE":null,"CENTER_NAME":"EARTH","ARG_OF_PERICENTER":"38.9506","TLE_LINE1":"1 49427U 21104V   22158.56818100  .00001032  00000-0  82910-4 0  9991","PERIAPSIS":"538.137","MEAN_MOTION":"15.08851217","REF_FRAME":"TEME","COUNTRY_CODE":"US","BSTAR":"0.00008291000000","MEAN_ANOMALY":"321.1650","CLASSIFICATION_TYPE":"U","REV_AT_EPOCH":"3273","MEAN_MOTION_DOT":"0.00001032","APOAPSIS":"541.286"},{"PERIAPSIS":"538.033","MEAN_MOTION":"15.08848142","REF_FRAME":"TEME","COUNTRY_CODE":"US","CLASSIFICATION_TYPE":"U","BSTAR":"-0.00012613000000","MEAN_ANOMALY":"317.0777","REV_AT_EPOCH":"3166","MEAN_MOTION_DOT":"-0.00002296","APOAPSIS":"541.408","TLE_LINE2":"2 49428  53.2175 263.7850 0002440  43.0405 317.0777 15.08848142 31668","LAUNCH_DATE":"2021-11-13","EPHEMERIS_TYPE":"0","SEMIMAJOR_AXIS":"6917.856","INCLINATION":"53.2175","PERIOD":"95.437","NORAD_CAT_ID":"49428","DECAY_DATE":null,"CENTER_NAME":"EARTH","ARG_OF_PERICENTER":"43.0405","TLE_LINE1":"1 49428U 21104W   22158.69058962 -.00002296  00000-0 -12613-3 0  9995","TIME_SYSTEM":"UTC","ELEMENT_SET_NO":"999","ECCENTRICITY":"0.00024400","OBJECT_ID":"2021-104W","MEAN_MOTION_DDOT":"0.0000000000000","RCS_SIZE":"LARGE","FILE":"3485136","GP_ID":"205597598","OBJECT_TYPE":"PAYLOAD","SITE":"AFETR","OBJECT_NAME":"STARLINK-3121","RA_OF_ASC_NODE":"263.7850","MEAN_ELEMENT_THEORY":"SGP4","EPOCH":"2022-06-07T16:34:26.943168"},{"APOAPSIS":"541.278","MEAN_MOTION_DOT":"0.00001622","REV_AT_EPOCH":"3167","CLASSIFICATION_TYPE":"U","BSTAR":"0.00011996000000","MEAN_ANOMALY":"328.9043","COUNTRY_CODE":"US","REF_FRAME":"TEME","MEAN_MOTION":"15.08847904","PERIAPSIS":"538.165","TLE_LINE1":"1 49430U 21104Y   22158.76322230  .00001622  00000-0  11996-3 0  9991","ARG_OF_PERICENTER":"31.2083","CENTER_NAME":"EARTH","DECAY_DATE":null,"NORAD_CAT_ID":"49430","PERIOD":"95.437","INCLINATION":"53.2191","LAUNCH_DATE":"2021-11-13","SEMIMAJOR_AXIS":"6917.856","EPHEMERIS_TYPE":"0","TLE_LINE2":"2 49430  53.2191 263.4534 0002250  31.2083 328.9043 15.08847904 31678","RCS_SIZE":"LARGE","MEAN_MOTION_DDOT":"0.0000000000000","OBJECT_ID":"2021-104Y","ECCENTRICITY":"0.00022500","ELEMENT_SET_NO":"999","TIME_SYSTEM":"UTC","EPOCH":"2022-06-07T18:19:02.406720","MEAN_ELEMENT_THEORY":"SGP4","RA_OF_ASC_NODE":"263.4534","OBJECT_NAME":"STARLINK-3138","SITE":"AFETR","OBJECT_TYPE":"PAYLOAD","GP_ID":"205596353","FILE":"3485136"},{"ELEMENT_SET_NO":"999","ECCENTRICITY":"0.00024810","TIME_SYSTEM":"UTC","RCS_SIZE":"LARGE","OBJECT_ID":"2021-104Z","MEAN_MOTION_DDOT":"0.0000000000000","GP_ID":"205596603","FILE":"3485136","RA_OF_ASC_NODE":"263.9170","MEAN_ELEMENT_THEORY":"SGP4","EPOCH":"2022-06-07T15:46:45.205824","OBJECT_TYPE":"PAYLOAD","SITE":"AFETR","OBJECT_NAME":"STARLINK-3153","MEAN_MOTION":"15.08845394","REF_FRAME":"TEME","COUNTRY_CODE":"US","PERIAPSIS":"538.013","CLASSIFICATION_TYPE":"U","BSTAR":"-0.00013044000000","MEAN_ANOMALY":"329.4650","REV_AT_EPOCH":"3165","MEAN_MOTION_DOT":"-0.00002364","APOAPSIS":"541.445","INCLINATION":"53.2187","TLE_LINE2":"2 49431  53.2187 263.9170 0002481  30.6487 329.4650 15.08845394 31651","EPHEMERIS_TYPE":"0","LAUNCH_DATE":"2021-11-13","SEMIMAJOR_AXIS":"6917.864","CENTER_NAME":"EARTH","ARG_OF_PERICENTER":"30.6487","TLE_LINE1":"1 49431U 21104Z   22158.65746766 -.00002364  00000-0 -13044-3 0  9996","PERIOD":"95.437","NORAD_CAT_ID":"49431","DECAY_DATE":null}];
